OBJECT_NAME,OBJECT_ID,EPOCH,MEAN_MOTION,ECCENTRICITY,INCLINATION,RA_OF_ASC_NODE,ARG_OF_PERICENTER,MEAN_ANOMALY,EPHEMERIS_TYPE,CLASSIFICATION_TYPE,NORAD_CAT_ID,ELEMENT_SET_NO,REV_AT_EPOCH,BSTAR,MEAN_MOTION_DOT,MEAN_MOTION_DDOT
CUTE-1 (CO-55),2003-031E,2026-07-14T13:46:54.319584,14.24351311,.00108284,98.6742,203.7891,104.2879,255.9503,0,U,27844,999,19557,.7958485E-4,.14E-5,0
CUBESAT XI-IV (CO-57),2003-031J,2026-07-14T13:50:06.355680,14.23634354,.00105265,98.6774,203.4819,121.1058,239.1154,0,U,27848,999,19527,.70501477E-4,.117E-5,0
CUBESAT XI-V,2005-043F,2026-07-14T09:02:23.284032,14.72701135,.00152302,98.3013,351.5747,117.6296,242.6459,0,U,28895,999,10575,.11574661E-3,.686E-5,0
CUTE-1.7+APD II (CO-65),2008-021C,2026-07-14T13:23:48.763392,15.09697347,.00070693,97.8290,177.5534,302.0160,58.0381,0,U,32785,999,98932,.18766342E-3,.2957E-4,0
CANX-2,2008-021H,2026-07-14T14:25:47.187840,15.05804232,.00087548,97.8657,175.9179,320.5204,39.5383,0,U,32790,999,98893,.11906953E-3,.1662E-4,0
SEEDS II (CO-66),2008-021J,2026-07-14T13:07:00.152256,15.33652134,.00029806,97.7520,194.7703,157.5049,202.6324,0,U,32791,999,99148,.32244084E-3,.1041E-3,0
SWISSCUBE,2009-051B,2026-07-14T11:12:06.627168,14.62529965,.00078106,98.4009,103.8280,121.0198,239.1771,0,U,35932,999,89314,.10292554E-3,.473E-5,0
BEESAT-1,2009-051C,2026-07-14T15:03:22.736736,14.61761338,.00060918,98.3936,103.5691,131.2948,228.8778,0,U,35933,999,89319,.88001653E-4,.39E-5,0
ITUPSAT1,2009-051E,2026-07-14T07:11:37.665600,14.60478047,.00080287,98.4019,102.3994,145.6513,214.5207,0,U,35935,999,89269,.86376266E-4,.37E-5,0
TISAT 1,2010-035E,2026-07-14T09:57:38.880576,15.32712950,.0004459,98.0712,144.4031,121.4672,238.7004,0,U,36799,999,87187,.39140732E-3,.12286E-3,0
STRAND-1,2013-009E,2026-07-14T11:41:03.699168,14.37178635,.00093749,98.3933,15.0510,143.0599,217.1235,0,U,39090,999,70098,.58406637E-4,.131E-5,0
BRITE-AUSTRIA,2013-009F,2026-07-14T10:36:21.813696,14.36552341,.00107224,98.4007,14.2048,152.8336,207.3414,0,U,39091,999,70096,.42362008E-4,.82E-6,0
NEE-01 PEGASO,2013-018B,2026-07-14T07:53:13.793568,14.93786198,.00136338,98.1252,340.3824,76.9613,283.3127,0,U,39151,999,71475,.10978396E-3,.1104E-4,0
POPACS 2,2013-055E,2026-07-14T11:31:30.475776,14.91996677,.04150238,80.9920,112.9412,106.1788,258.5512,0,U,39269,999,66728,.20479233E-3,.12593E-3,-.924519E-6
POPACS 3,2013-055F,2026-07-14T07:47:27.959424,14.56646236,.054889,80.9986,199.7494,347.3255,11.4581,0,U,39270,999,64250,.2047903E-3,.8628E-4,0
ZACUBE-1 (TSHEPISOSAT),2013-066B,2026-07-14T11:14:07.931904,15.01326998,.00439939,97.8008,157.9398,157.5329,202.7834,0,U,39417,999,68482,.10281917E-3,.1286E-4,0
WNISAT-1,2013-066H,2026-07-14T09:16:50.233728,14.58118850,.01638367,97.7233,342.6169,145.8483,215.3389,0,U,39423,999,67069,.11981232E-3,.616E-5,0
TRITON-1,2013-066M,2026-07-14T15:28:59.670912,14.81793911,.00905761,97.8229,104.8254,143.8815,216.8563,0,U,39427,999,67815,.13246145E-3,.1066E-4,0
GOMX-1,2013-066Q,2026-07-14T11:46:04.944864,14.69542113,.01283163,97.6469,34.2302,350.4797,9.3979,0,U,39430,999,67392,.12859376E-3,.813E-5,0
CUBEBUG-2 (LO-74),2013-066AA,2026-07-14T09:23:42.671904,14.93963525,.00557858,97.8911,144.4904,298.0804,61.4782,0,U,39440,999,68105,.18552025E-3,.1973E-4,0
NEE-02 KRYSAOR,2013-066AB,2026-07-14T07:59:32.773344,14.86736951,.00654894,97.8897,134.3568,342.1297,17.7616,0,U,39441,999,68023,.13773417E-3,.1214E-4,0
FUNCUBE-1 (AO-73),2013-066AE,2026-07-14T11:56:11.448672,15.09812271,.00380291,97.8287,167.5216,109.9036,250.6296,0,U,39444,999,68378,.20437186E-3,.329E-4,0
UWE-3,2013-066AG,2026-07-14T10:01:54.343776,14.97195599,.00474906,97.8705,151.6809,227.1676,132.5551,0,U,39446,999,68165,.16564366E-3,.1896E-4,0
BRITE-CA1 (TORONTO),2014-033L,2026-07-14T08:25:47.167104,14.72721565,.00783747,97.9770,323.7836,188.9650,171.0163,0,U,40020,999,64621,.86645796E-4,.526E-5,0
DUCHIFAT-1,2014-033M,2026-07-14T09:44:24.088704,15.70866495,.00025832,98.0419,258.5256,244.7110,115.3883,0,U,40021,999,66001,.83752089E-3,.105194E-2,0
NANOSATC-BR1,2014-033Q,2026-07-14T09:05:08.058336,15.32311648,.00053252,98.0711,230.1918,98.1574,262.0270,0,U,40024,999,65814,.3447109E-3,.10673E-3,0
QB50P1,2014-033R,2026-07-14T13:31:12.719424,15.18660627,.00103162,98.0961,208.6368,126.4314,233.7871,0,U,40025,999,65718,.21396472E-3,.4361E-4,0
QB50P2,2014-033Y,2026-07-14T12:05:39.890688,15.15500776,.00093428,98.0760,194.0927,85.5997,274.6301,0,U,40032,999,65680,.1903694E-3,.3533E-4,0
PERSEUS-M2,2014-033AD,2026-07-14T15:05:02.463936,14.95591268,.00107654,97.9975,146.7309,200.7037,159.3748,0,U,40037,999,65488,.12251668E-3,.13E-4,0
PERSEUS-M1,2014-033AF,2026-07-14T09:33:55.963296,14.95714052,.0010858,97.9653,139.9798,198.9807,161.1010,0,U,40039,999,65470,.1202784E-3,.1279E-4,0
